{
  "type": "FeatureCollection",
  "features": [
    {
      "type": "Feature",
      "properties": {
        "norad_id": 28051,
        "name": "IRS-P6 (RESOURCESAT-1)",
        "group": "resource",
        "lat": -17.33586487996282,
        "lon": 36.604353307066866,
        "alt_km": 822.4974229524178,
        "timestamp": "2025-12-19T22:41:52.035513+00:00",
        "meta_object_name": "IRS-P6 (RESOURCESAT-1)",
        "meta_object_id": "2003-046A",
        "meta_epoch": "2025-12-19T18:24:05.896224",
        "meta_mean_motion": 14.36077472,
        "meta_eccentricity": 0.0064587,
        "meta_inclination": 98.2171,
        "meta_ra_of_asc_node": 33.8484,
        "meta_arg_of_pericenter": 159.6605,
        "meta_mean_anomaly": 338.0753,
        "meta_ephemeris_type": 0,
        "meta_classification_type": "U",
        "meta_norad_cat_id": 28051,
        "meta_element_set_no": 999,
        "meta_rev_at_epoch": 15477,
        "meta_bstar": 4.3531e-05,
        "meta_mean_motion_dot": 8.9e-07,
        "meta_mean_motion_ddot": 0,
        "tle_line1": "1 28051U 03046A   25353.76673491  .00000089  00000+0  43531-4 0  9996",
        "tle_line2": "2 28051  98.2171  33.8484 0064587 159.6605 338.0753 14.36077472154772"
      },
      "geometry": {
        "type": "Point",
        "coordinates": [
          36.604353307066866,
          -17.33586487996282
        ]
      }
    },
    {
      "type": "Feature",
      "properties": {
        "norad_id": 28220,
        "name": "SHIYAN-1 (SY-1)",
        "group": "resource",
        "lat": 79.80048385372356,
        "lon": 5.456546764718464,
        "alt_km": 476.49305745910806,
        "timestamp": "2025-12-19T22:41:52.035524+00:00",
        "meta_object_name": "SHIYAN-1 (SY-1)",
        "meta_object_id": "2004-012A",
        "meta_epoch": "2025-12-19T03:28:38.259264",
        "meta_mean_motion": 15.28303655,
        "meta_eccentricity": 0.0005285,
        "meta_inclination": 97.8932,
        "meta_ra_of_asc_node": 55.062,
        "meta_arg_of_pericenter": 299.4151,
        "meta_mean_anomaly": 60.656,
        "meta_ephemeris_type": 0,
        "meta_classification_type": "U",
        "meta_norad_cat_id": 28220,
        "meta_element_set_no": 999,
        "meta_rev_at_epoch": 18354,
        "meta_bstar": 0.00036633035,
        "meta_mean_motion_dot": 0.00010025,
        "meta_mean_motion_ddot": 0,
        "tle_line1": "1 28220U 04012A   25353.14488726  .00010025  00000+0  36633-3 0  9990",
        "tle_line2": "2 28220  97.8932  55.0620 0005285 299.4151  60.6560 15.28303655183545"
      },
      "geometry": {
        "type": "Point",
        "coordinates": [
          5.456546764718464,
          79.80048385372356
        ]
      }
    },
    {
      "type": "Feature",
      "properties": {
        "norad_id": 28376,
        "name": "AURA",
        "group": "resource",
        "lat": 5.729264570431332,
        "lon": 125.04724399235651,
        "alt_km": 692.1374098635015,
        "timestamp": "2025-12-19T22:41:52.035535+00:00",
        "meta_object_name": "AURA",
        "meta_object_id": "2004-026A",
        "meta_epoch": "2025-12-19T16:58:20.686368",
        "meta_mean_motion": 14.60961568,
        "meta_eccentricity": 0.0001355,
        "meta_inclination": 98.3193,
        "meta_ra_of_asc_node": 303.9664,
        "meta_arg_of_pericenter": 93.0579,
        "meta_mean_anomaly": 267.0776,
        "meta_ephemeris_type": 0,
        "meta_classification_type": "U",
        "meta_norad_cat_id": 28376,
        "meta_element_set_no": 999,
        "meta_rev_at_epoch": 14000,
        "meta_bstar": 0.00015723,
        "meta_mean_motion_dot": 7.23e-06,
        "meta_mean_motion_ddot": 0,
        "tle_line1": "1 28376U 04026A   25353.70718387  .00000723  00000+0  15723-3 0  9999",
        "tle_line2": "2 28376  98.3193 303.9664 0001355  93.0579 267.0776 14.60961568140005"
      },
      "geometry": {
        "type": "Point",
        "coordinates": [
          125.04724399235651,
          5.729264570431332
        ]
      }
    },
    {
      "type": "Feature",
      "properties": {
        "norad_id": 28649,
        "name": "IRS-P5 (CARTOSAT-1)",
        "group": "resource",
        "lat": 68.46370038958909,
        "lon": 0.40522278567548636,
        "alt_km": 589.4197703950849,
        "timestamp": "2025-12-19T22:41:52.035547+00:00",
        "meta_object_name": "IRS-P5 (CARTOSAT-1)",
        "meta_object_id": "2005-017A",
        "meta_epoch": "2025-12-19T12:43:05.760192",
        "meta_mean_motion": 14.90426279,
        "meta_eccentricity": 8.32e-05,
        "meta_inclination": 97.5486,
        "meta_ra_of_asc_node": 19.6421,
        "meta_arg_of_pericenter": 50.2507,
        "meta_mean_anomaly": 309.8785,
        "meta_ephemeris_type": 0,
        "meta_classification_type": "U",
        "meta_norad_cat_id": 28649,
        "meta_element_set_no": 999,
        "meta_rev_at_epoch": 11705,
        "meta_bstar": 0.00011213,
        "meta_mean_motion_dot": 1.04e-05,
        "meta_mean_motion_ddot": 0,
        "tle_line1": "1 28649U 05017A   25353.52992778  .00001040  00000+0  11213-3 0  9994",
        "tle_line2": "2 28649  97.5486  19.6421 0000832  50.2507 309.8785 14.90426279117053"
      },
      "geometry": {
        "type": "Point",
        "coordinates": [
          0.40522278567548636,
          68.46370038958909
        ]
      }
    },
    {
      "type": "Feature",
      "properties": {
        "norad_id": 28893,
        "name": "SINAH 1",
        "group": "resource",
        "lat": 78.2574212920986,
        "lon": -13.136957907964817,
        "alt_km": 662.5451888382895,
        "timestamp": "2025-12-19T22:41:52.035557+00:00",
        "meta_object_name": "SINAH 1",
        "meta_object_id": "2005-043D",
        "meta_epoch": "2025-12-19T17:19:46.592256",
        "meta_mean_motion": 14.63969415,
        "meta_eccentricity": 0.0015617,
        "meta_inclination": 98.2608,
        "meta_ra_of_asc_node": 122.2981,
        "meta_arg_of_pericenter": 116.5313,
        "meta_mean_anomaly": 243.7492,
        "meta_ephemeris_type": 0,
        "meta_classification_type": "U",
        "meta_norad_cat_id": 28893,
        "meta_element_set_no": 999,
        "meta_rev_at_epoch": 7426,
        "meta_bstar": 6.725e-05,
        "meta_mean_motion_dot": 3.04e-06,
        "meta_mean_motion_ddot": 0,
        "tle_line1": "1 28893U 05043D   25353.72206704  .00000304  00000+0  67250-4 0  9998",
        "tle_line2": "2 28893  98.2608 122.2981 0015617 116.5313 243.7492 14.63969415 74268"
      },
      "geometry": {
        "type": "Point",
        "coordinates": [
          -13.136957907964817,
          78.2574212920986
        ]
      }
    },
    {
      "type": "Feature",
      "properties": {
        "norad_id": 29079,
        "name": "EROS B",
        "group": "resource",
        "lat": -40.94518561997032,
        "lon": 117.3024232753132,
        "alt_km": 361.85571458689174,
        "timestamp": "2025-12-19T22:41:52.035568+00:00",
        "meta_object_name": "EROS B",
        "meta_object_id": "2006-014A",
        "meta_epoch": "2025-12-19T18:17:08.688768",
        "meta_mean_motion": 15.7042992,
        "meta_eccentricity": 0.0003493,
        "meta_inclination": 97.3469,
        "meta_ra_of_asc_node": 110.6817,
        "meta_arg_of_pericenter": 311.2616,
        "meta_mean_anomaly": 48.8346,
        "meta_ephemeris_type": 0,
        "meta_classification_type": "U",
        "meta_norad_cat_id": 29079,
        "meta_element_set_no": 999,
        "meta_rev_at_epoch": 9190,
        "meta_bstar": 0.001045,
        "meta_mean_motion_dot": 0.00129295,
        "meta_mean_motion_ddot": 0,
        "tle_line1": "1 29079U 06014A   25353.76190612  .00129295  00000+0  10450-2 0  9997",
        "tle_line2": "2 29079  97.3469 110.6817 0003493 311.2616  48.8346 15.70429920 91901"
      },
      "geometry": {
        "type": "Point",
        "coordinates": [
          117.3024232753132,
          -40.94518561997032
        ]
      }
    },
    {
      "type": "Feature",
      "properties": {
        "norad_id": 29228,
        "name": "RESURS-DK 1",
        "group": "resource",
        "lat": -22.496962517164693,
        "lon": -88.07690109271913,
        "alt_km": 531.2197720126587,
        "timestamp": "2025-12-19T22:41:52.035578+00:00",
        "meta_object_name": "RESURS-DK 1",
        "meta_object_id": "2006-021A",
        "meta_epoch": "2025-12-19T17:02:08.742624",
        "meta_mean_motion": 15.12197286,
        "meta_eccentricity": 0.0006864,
        "meta_inclination": 69.9339,
        "meta_ra_of_asc_node": 83.8253,
        "meta_arg_of_pericenter": 253.3624,
        "meta_mean_anomaly": 106.6789,
        "meta_ephemeris_type": 0,
        "meta_classification_type": "U",
        "meta_norad_cat_id": 29228,
        "meta_element_set_no": 999,
        "meta_rev_at_epoch": 7543,
        "meta_bstar": 0.00011373,
        "meta_mean_motion_dot": 1.861e-05,
        "meta_mean_motion_ddot": 0,
        "tle_line1": "1 29228U 06021A   25353.70982341  .00001861  00000+0  11373-3 0  9997",
        "tle_line2": "2 29228  69.9339  83.8253 0006864 253.3624 106.6789 15.12197286 75430"
      },
      "geometry": {
        "type": "Point",
        "coordinates": [
          -88.07690109271913,
          -22.496962517164693
        ]
      }
    }
  ]
}